{
  "type": "FeatureCollection",
  "features": [
    {
      "type": "Feature",
      "properties": {
        "norad_id": 35789,
        "name": "COSMOS 2251 DEB",
        "group": "cosmos-2251-debris",
        "lat": -16.43894673926707,
        "lon": -83.66654001303532,
        "alt_km": 749.2086888648919,
        "timestamp": "2025-12-14T11:29:50.456964+00:00",
        "meta_object_name": "COSMOS 2251 DEB",
        "meta_object_id": "1993-036ASK",
        "meta_epoch": "2025-12-13T12:10:06.042432",
        "meta_mean_motion": 14.35987054,
        "meta_eccentricity": 0.00473654,
        "meta_inclination": 74.039,
        "meta_ra_of_asc_node": 282.9609,
        "meta_arg_of_pericenter": 22.1586,
        "meta_mean_anomaly": 338.1599,
        "meta_ephemeris_type": 0,
        "meta_classification_type": "U",
        "meta_norad_cat_id": 35789,
        "meta_element_set_no": 999,
        "meta_rev_at_epoch": 61238,
        "meta_bstar": 0.00021745094,
        "meta_mean_motion_dot": 6.14e-06,
        "meta_mean_motion_ddot": 0,
        "tle_line1": "1 35789U 93036ASK 25347.50701438  .00000614  00000+0  21745-3 0  9994",
        "tle_line2": "2 35789  74.0390 282.9609 0047365  22.1586 338.1599 14.35987054612386"
      },
      "geometry": {
        "type": "Point",
        "coordinates": [
          -83.66654001303532,
          -16.43894673926707
        ]
      }
    },
    {
      "type": "Feature",
      "properties": {
        "norad_id": 35793,
        "name": "COSMOS 2251 DEB",
        "group": "cosmos-2251-debris",
        "lat": -53.545082918372714,
        "lon": 33.975865157734056,
        "alt_km": 641.7232898112106,
        "timestamp": "2025-12-14T11:29:50.456985+00:00",
        "meta_object_name": "COSMOS 2251 DEB",
        "meta_object_id": "1993-036ASP",
        "meta_epoch": "2025-12-13T11:28:48.766080",
        "meta_mean_motion": 14.78719121,
        "meta_eccentricity": 0.00026599,
        "meta_inclination": 74.0413,
        "meta_ra_of_asc_node": 58.7317,
        "meta_arg_of_pericenter": 116.4209,
        "meta_mean_anomaly": 261.8271,
        "meta_ephemeris_type": 0,
        "meta_classification_type": "U",
        "meta_norad_cat_id": 35793,
        "meta_element_set_no": 999,
        "meta_rev_at_epoch": 65808,
        "meta_bstar": 0.0030909517,
        "meta_mean_motion_dot": 0.00022734,
        "meta_mean_motion_ddot": 0,
        "tle_line1": "1 35793U 93036ASP 25347.47834220  .00022734  00000+0  30910-2 0  9991",
        "tle_line2": "2 35793  74.0413  58.7317 0002659 116.4209 261.8271 14.78719121658089"
      },
      "geometry": {
        "type": "Point",
        "coordinates": [
          33.975865157734056,
          -53.545082918372714
        ]
      }
    },
    {
      "type": "Feature",
      "properties": {
        "norad_id": 35824,
        "name": "COSMOS 2251 DEB",
        "group": "cosmos-2251-debris",
        "lat": 57.922132988044304,
        "lon": -161.7399281845663,
        "alt_km": 750.6601325156562,
        "timestamp": "2025-12-14T11:29:50.456997+00:00",
        "meta_object_name": "COSMOS 2251 DEB",
        "meta_object_id": "1993-036ASW",
        "meta_epoch": "2025-12-08T11:24:31.157568",
        "meta_mean_motion": 13.883958,
        "meta_eccentricity": 0.02494458,
        "meta_inclination": 73.8458,
        "meta_ra_of_asc_node": 56.1203,
        "meta_arg_of_pericenter": 143.0234,
        "meta_mean_anomaly": 218.8382,
        "meta_ephemeris_type": 0,
        "meta_classification_type": "U",
        "meta_norad_cat_id": 35824,
        "meta_element_set_no": 999,
        "meta_rev_at_epoch": 84168,
        "meta_bstar": 0.0020429183,
        "meta_mean_motion_dot": 3.116e-05,
        "meta_mean_motion_ddot": 0,
        "tle_line1": "1 35824U 93036ASW 25342.47536062  .00003116  00000+0  20429-2 0  9991",
        "tle_line2": "2 35824  73.8458  56.1203 0249445 143.0234 218.8382 13.88395800841685"
      },
      "geometry": {
        "type": "Point",
        "coordinates": [
          -161.7399281845663,
          57.922132988044304
        ]
      }
    },
    {
      "type": "Feature",
      "properties": {
        "norad_id": 35825,
        "name": "COSMOS 2251 DEB",
        "group": "cosmos-2251-debris",
        "lat": 24.821619099990546,
        "lon": 147.35111198935408,
        "alt_km": 1220.0366867338007,
        "timestamp": "2025-12-14T11:29:50.457007+00:00",
        "meta_object_name": "COSMOS 2251 DEB",
        "meta_object_id": "1993-036ASX",
        "meta_epoch": "2025-12-06T17:43:31.257408",
        "meta_mean_motion": 13.70908059,
        "meta_eccentricity": 0.03529553,
        "meta_inclination": 74.1125,
        "meta_ra_of_asc_node": 152.5025,
        "meta_arg_of_pericenter": 249.6557,
        "meta_mean_anomaly": 106.6316,
        "meta_ephemeris_type": 0,
        "meta_classification_type": "U",
        "meta_norad_cat_id": 35825,
        "meta_element_set_no": 999,
        "meta_rev_at_epoch": 82426,
        "meta_bstar": 0.0026115912,
        "meta_mean_motion_dot": 3.599e-05,
        "meta_mean_motion_ddot": 0,
        "tle_line1": "1 35825U 93036ASX 25340.73855622  .00003599  00000+0  26116-2 0  9999",
        "tle_line2": "2 35825  74.1125 152.5025 0352955 249.6557 106.6316 13.70908059824269"
      },
      "geometry": {
        "type": "Point",
        "coordinates": [
          147.35111198935408,
          24.821619099990546
        ]
      }
    },
    {
      "type": "Feature",
      "properties": {
        "norad_id": 35829,
        "name": "COSMOS 2251 DEB",
        "group": "cosmos-2251-debris",
        "lat": -25.80043694495034,
        "lon": -76.63563920502688,
        "alt_km": 643.0084729047612,
        "timestamp": "2025-12-14T11:29:50.457017+00:00",
        "meta_object_name": "COSMOS 2251 DEB",
        "meta_object_id": "1993-036ATB",
        "meta_epoch": "2025-12-08T14:41:25.732032",
        "meta_mean_motion": 14.76103447,
        "meta_eccentricity": 0.0006283,
        "meta_inclination": 74.0249,
        "meta_ra_of_asc_node": 106.8945,
        "meta_arg_of_pericenter": 174.4564,
        "meta_mean_anomaly": 185.6681,
        "meta_ephemeris_type": 0,
        "meta_classification_type": "U",
        "meta_norad_cat_id": 35829,
        "meta_element_set_no": 999,
        "meta_rev_at_epoch": 87714,
        "meta_bstar": 0.0032694,
        "meta_mean_motion_dot": 0.0002262,
        "meta_mean_motion_ddot": 0,
        "tle_line1": "1 35829U 93036ATB 25342.61210338  .00022620  00000+0  32694-2 0  9995",
        "tle_line2": "2 35829  74.0249 106.8945 0006283 174.4564 185.6681 14.76103447877147"
      },
      "geometry": {
        "type": "Point",
        "coordinates": [
          -76.63563920502688,
          -25.80043694495034
        ]
      }
    },
    {
      "type": "Feature",
      "properties": {
        "norad_id": 35830,
        "name": "COSMOS 2251 DEB",
        "group": "cosmos-2251-debris",
        "lat": -1.018769593815274,
        "lon": 83.57001499481716,
        "alt_km": 757.6590354524478,
        "timestamp": "2025-12-14T11:29:50.457027+00:00",
        "meta_object_name": "COSMOS 2251 DEB",
        "meta_object_id": "1993-036ATC",
        "meta_epoch": "2025-12-06T12:06:38.215008",
        "meta_mean_motion": 14.23927917,
        "meta_eccentricity": 0.01224789,
        "meta_inclination": 73.8624,
        "meta_ra_of_asc_node": 277.7805,
        "meta_arg_of_pericenter": 247.2482,
        "meta_mean_anomaly": 111.5683,
        "meta_ephemeris_type": 0,
        "meta_classification_type": "U",
        "meta_norad_cat_id": 35830,
        "meta_element_set_no": 999,
        "meta_rev_at_epoch": 61175,
        "meta_bstar": 0.0019622096,
        "meta_mean_motion_dot": 4.837e-05,
        "meta_mean_motion_ddot": 0,
        "tle_line1": "1 35830U 93036ATC 25340.50460897  .00004837  00000+0  19622-2 0  9996",
        "tle_line2": "2 35830  73.8624 277.7805 0122478 247.2482 111.5683 14.23927917611750"
      },
      "geometry": {
        "type": "Point",
        "coordinates": [
          83.57001499481716,
          -1.018769593815274
        ]
      }
    },
    {
      "type": "Feature",
      "properties": {
        "norad_id": 35834,
        "name": "COSMOS 2251 DEB",
        "group": "cosmos-2251-debris",
        "lat": -46.62826166366131,
        "lon": -76.31692307435412,
        "alt_km": 924.0405452058221,
        "timestamp": "2025-12-14T11:29:50.457037+00:00",
        "meta_object_name": "COSMOS 2251 DEB",
        "meta_object_id": "1993-036ATG",
        "meta_epoch": "2025-12-12T20:47:15.272736",
        "meta_mean_motion": 14.12979936,
        "meta_eccentricity": 0.01092598,
        "meta_inclination": 73.9317,
        "meta_ra_of_asc_node": 304.3154,
        "meta_arg_of_pericenter": 104.5119,
        "meta_mean_anomaly": 285.8109,
        "meta_ephemeris_type": 0,
        "meta_classification_type": "U",
        "meta_norad_cat_id": 35834,
        "meta_element_set_no": 999,
        "meta_rev_at_epoch": 66265,
        "meta_bstar": 0.00043494397,
        "meta_mean_motion_dot": 8.33e-06,
        "meta_mean_motion_ddot": 0,
        "tle_line1": "1 35834U 93036ATG 25346.86614899  .00000833  00000+0  43494-3 0  9995",
        "tle_line2": "2 35834  73.9317 304.3154 0109259 104.5119 285.8109 14.12979936662651"
      },
      "geometry": {
        "type": "Point",
        "coordinates": [
          -76.31692307435412,
          -46.62826166366131
        ]
      }
    }
  ]
}